LAPAN-TUBSAT            
1 29709U 07001A   26186.63752874  .00001290  00000+0  15410-3 0  9995
2 29709  98.1348 186.2782 0013354 121.7213 238.5305 14.85972709 53892
LANDSAT 8               
1 39084U 13008A   26186.35963828  .00000465  00000+0  11340-3 0  9999
2 39084  98.2294 256.2785 0001354  93.9663 266.1690 14.57107787700547
KOMPSAT-3A              
1 40536U 15014A   26186.58851391  .00034117  00000+0  47371-3 0  9992
2 40536  97.6892 179.3081 0057025 109.3248 251.4184 15.54994163624673
KENT RIDGE 1            
1 41167U 15077B   26186.17142878  .00005171  00000+0  18027-3 0  9994
2 41167  14.9788 132.2238 0008161 133.4510 226.6491 15.23242475583845
LAPAN-A3                
1 41603U 16040E   26186.66172124  .00004577  00000+0  14475-3 0  9993
2 41603  97.1498 182.2020 0008643 317.4246  42.6326 15.33233837557645
LANDSAT 9               
1 49260U 21088A   26186.18804202  .00000486  00000+0  11792-3 0  9998
2 49260  98.2273 256.1471 0001170  88.5749 271.5583 14.57110712253628
LEGION 1                
1 59625U 24081A   26186.36967820  .00006303  00000+0  32396-3 0  9993
2 59625  97.5007 264.0336 0007965 310.4450  49.6087 15.16799171120290
LEGION 2                
1 59626U 24081B   26186.33394782  .00005535  00000+0  28500-3 0  9990
2 59626  97.5008 264.0954 0009825 272.6886  87.3222 15.16777676120293
LEGION 3                
1 60452U 24146A   26186.31816958  .00005718  00000+0  30915-3 0  9999
2 60452  45.0021 293.3280 0008893 282.8359  77.1525 15.15613010104772
LEGION 4                
1 60453U 24146B   26186.58327968  .00005592  00000+0  29767-3 0  9990
2 60453  45.0021  23.7952 0011631  51.9024 308.2902 15.16188757103662
